*******************************************************************************
Revised: Jul 26, 2016             Moon / (Earth)                            301
 
PHYSICAL PROPERTIES:
 Radius (IAU), km      = 1737.4          Mass, 10^20 kg        =  734.9
 Radius (gravity), km  = 1738.0          Geometric albedo      =    0.12
 Density, gm cm^-3     =    3.3437       GM, km^3/s^2          = 4902.80007
 V(1,0)                =   +0.21         Surface gravity       =    1.62 m s^-2
 Earth/Moon mass ratio = 81.3005691      Farside crust. thick. = ~80 - 90 km   
 Nearside crust. thick.= 58+-8 km        Heat flow, Apollo 17  = 2.2+-.5 mW/m^2
 Heat flow, Apollo 15  = 3.1+-.6 mW/m^2  k2                    = 0.024059
 Mean crustal density  = 2.97+-.07g/cm^3 Magnetometer moment   = 435+-15        
 Induced magnetic mom. = 4.23x10^22Gcm^3 

DYNAMICAL CHARACTERISTICS:
 Mean angular diameter = 31'05.2"        Orbit period          = 27.321582 d
 Obliquity to orbit    = 6.67 deg        Eccentricity          = 0.05490
 Semi-major axis, a    = 384400 km       Inclination           = 5.145 deg
 Mean motion, rad/s    = 2.6616995x10^-6 Nodal period          = 6798.38 d
 Apsidal period        = 3231.50 d       Mom. of inertia C/MR^2= 0.393142
 beta (C-A/B), x10^-4  = 6.310213        gamma (B-A/C), x10^-4 = 2.277317
*******************************************************************************
 
 
*******************************************************************************
Ephemeris / WWW_USER Mon Jan 23 07:34:17 2017 Pasadena, USA      / Horizons    
*******************************************************************************
Target body name: Moon (301)                      {source: DE431mx}
Center body name: Earth (399)                     {source: DE431mx}
Center-site name: GEOCENTRIC
*******************************************************************************
Start time      : A.D. 2016-Nov-01 00:00:00.0000 UT      
Stop  time      : A.D. 2016-Dec-01 00:00:00.0000 UT      
Step-size       : 60 minutes
*******************************************************************************
Target pole/equ : IAU_MOON                        {East-longitude +}
Target radii    : 1737.4 x 1737.4 x 1737.4 km     {Equator, meridian, pole}    
Center geodetic : 0.00000000,0.00000000,0.0000000 {E-lon(deg),Lat(deg),Alt(km)}
Center cylindric: 0.00000000,0.00000000,0.0000000 {E-lon(deg),Dxy(km),Dz(km)}
Center pole/equ : High-precision EOP model        {East-longitude +}
Center radii    : 6378.1 x 6378.1 x 6356.8 km     {Equator, meridian, pole}    
Target primary  : Earth
Vis. interferer : MOON (R_eq= 1737.400) km        {source: DE431mx}
Rel. light bend : Sun, EARTH                      {source: DE431mx}
Rel. lght bnd GM: 1.3271E+11, 3.9860E+05 km^3/s^2                              
Atmos refraction: NO (AIRLESS)
RA format       : DEG
Time format     : CAL 
EOP file        : eop.170120.p170413                                           
EOP coverage    : DATA-BASED 1962-JAN-20 TO 2017-JAN-20. PREDICTS-> 2017-APR-12
Units conversion: 1 au= 149597870.700 km, c= 299792.458 km/s, 1 day= 86400.0 s 
Table cut-offs 1: Elevation (-90.0deg=NO ),Airmass (>38.000=NO), Daylight (NO )
Table cut-offs 2: Solar Elongation (  0.0,180.0=NO ),Local Hour Angle( 0.0=NO )
Table format    : Comma Separated Values (spreadsheet)
*******************************************************************************
 Date__(UT)__HR:MN:SS, , ,   ObsEcLon,   ObsEcLat,
**************************************************
$$SOE
 2016-Nov-01 00:00:00, , ,232.7286208,  4.8083286,
 2016-Nov-01 01:00:00, , ,233.2225307,  4.8217814,
 2016-Nov-01 02:00:00, , ,233.7164544,  4.8348709,
 2016-Nov-01 03:00:00, , ,234.2103938,  4.8475961,
 2016-Nov-01 04:00:00, , ,234.7043507,  4.8599562,
 2016-Nov-01 05:00:00, , ,235.1983270,  4.8719502,
 2016-Nov-01 06:00:00, , ,235.6923246,  4.8835775,
 2016-Nov-01 07:00:00, , ,236.1863454,  4.8948371,
 2016-Nov-01 08:00:00, , ,236.6803913,  4.9057282,
 2016-Nov-01 09:00:00, , ,237.1744642,  4.9162501,
 2016-Nov-01 10:00:00, , ,237.6685660,  4.9264021,
 2016-Nov-01 11:00:00, , ,238.1626988,  4.9361833,
 2016-Nov-01 12:00:00, , ,238.6568644,  4.9455930,
 2016-Nov-01 13:00:00, , ,239.1510649,  4.9546307,
 2016-Nov-01 14:00:00, , ,239.6453022,  4.9632955,
 2016-Nov-01 15:00:00, , ,240.1395784,  4.9715869,
 2016-Nov-01 16:00:00, , ,240.6338956,  4.9795042,
 2016-Nov-01 17:00:00, , ,241.1282556,  4.9870469,
 2016-Nov-01 18:00:00, , ,241.6226608,  4.9942142,
 2016-Nov-01 19:00:00, , ,242.1171130,  5.0010058,
 2016-Nov-01 20:00:00, , ,242.6116145,  5.0074209,
 2016-Nov-01 21:00:00, , ,243.1061674,  5.0134591,
 2016-Nov-01 22:00:00, , ,243.6007738,  5.0191200,
 2016-Nov-01 23:00:00, , ,244.0954359,  5.0244029,
 2016-Nov-02 00:00:00, , ,244.5901559,  5.0293075,
 2016-Nov-02 01:00:00, , ,245.0849360,  5.0338332,
 2016-Nov-02 02:00:00, , ,245.5797785,  5.0379798,
 2016-Nov-02 03:00:00, , ,246.0746855,  5.0417467,
 2016-Nov-02 04:00:00, , ,246.5696595,  5.0451336,
 2016-Nov-02 05:00:00, , ,247.0647026,  5.0481402,
 2016-Nov-02 06:00:00, , ,247.5598173,  5.0507660,
 2016-Nov-02 07:00:00, , ,248.0550058,  5.0530109,
 2016-Nov-02 08:00:00, , ,248.5502706,  5.0548744,
 2016-Nov-02 09:00:00, , ,249.0456141,  5.0563564,
 2016-Nov-02 10:00:00, , ,249.5410386,  5.0574564,
 2016-Nov-02 11:00:00, , ,250.0365467,  5.0581744,
 2016-Nov-02 12:00:00, , ,250.5321407,  5.0585101,
 2016-Nov-02 13:00:00, , ,251.0278234,  5.0584633,
 2016-Nov-02 14:00:00, , ,251.5235970,  5.0580338,
 2016-Nov-02 15:00:00, , ,252.0194643,  5.0572214,
 2016-Nov-02 16:00:00, , ,252.5154278,  5.0560261,
 2016-Nov-02 17:00:00, , ,253.0114900,  5.0544477,
 2016-Nov-02 18:00:00, , ,253.5076538,  5.0524860,
 2016-Nov-02 19:00:00, , ,254.0039216,  5.0501411,
 2016-Nov-02 20:00:00, , ,254.5002963,  5.0474129,
 2016-Nov-02 21:00:00, , ,254.9967805,  5.0443012,
 2016-Nov-02 22:00:00, , ,255.4933771,  5.0408062,
 2016-Nov-02 23:00:00, , ,255.9900887,  5.0369278,
 2016-Nov-03 00:00:00, , ,256.4869182,  5.0326660,
 2016-Nov-03 01:00:00, , ,256.9838685,  5.0280208,
 2016-Nov-03 02:00:00, , ,257.4809423,  5.0229924,
 2016-Nov-03 03:00:00, , ,257.9781427,  5.0175807,
 2016-Nov-03 04:00:00, , ,258.4754726,  5.0117859,
 2016-Nov-03 05:00:00, , ,258.9729349,  5.0056081,
 2016-Nov-03 06:00:00, , ,259.4705326,  4.9990475,
 2016-Nov-03 07:00:00, , ,259.9682687,  4.9921041,
 2016-Nov-03 08:00:00, , ,260.4661463,  4.9847782,
 2016-Nov-03 09:00:00, , ,260.9641686,  4.9770699,
 2016-Nov-03 10:00:00, , ,261.4623386,  4.9689795,
 2016-Nov-03 11:00:00, , ,261.9606594,  4.9605071,
 2016-Nov-03 12:00:00, , ,262.4591343,  4.9516531,
 2016-Nov-03 13:00:00, , ,262.9577665,  4.9424177,
 2016-Nov-03 14:00:00, , ,263.4565592,  4.9328011,
 2016-Nov-03 15:00:00, , ,263.9555157,  4.9228037,
 2016-Nov-03 16:00:00, , ,264.4546393,  4.9124259,
 2016-Nov-03 17:00:00, , ,264.9539334,  4.9016678,
 2016-Nov-03 18:00:00, , ,265.4534014,  4.8905300,
 2016-Nov-03 19:00:00, , ,265.9530466,  4.8790127,
 2016-Nov-03 20:00:00, , ,266.4528726,  4.8671164,
 2016-Nov-03 21:00:00, , ,266.9528827,  4.8548415,
 2016-Nov-03 22:00:00, , ,267.4530806,  4.8421883,
 2016-Nov-03 23:00:00, , ,267.9534697,  4.8291575,
 2016-Nov-04 00:00:00, , ,268.4540536,  4.8157494,
 2016-Nov-04 01:00:00, , ,268.9548360,  4.8019645,
 2016-Nov-04 02:00:00, , ,269.4558205,  4.7878034,
 2016-Nov-04 03:00:00, , ,269.9570108,  4.7732665,
 2016-Nov-04 04:00:00, , ,270.4584106,  4.7583544,
 2016-Nov-04 05:00:00, , ,270.9600236,  4.7430676,
 2016-Nov-04 06:00:00, , ,271.4618536,  4.7274069,
 2016-Nov-04 07:00:00, , ,271.9639045,  4.7113726,
 2016-Nov-04 08:00:00, , ,272.4661800,  4.6949655,
 2016-Nov-04 09:00:00, , ,272.9686841,  4.6781862,
 2016-Nov-04 10:00:00, , ,273.4714206,  4.6610354,
 2016-Nov-04 11:00:00, , ,273.9743936,  4.6435137,
 2016-Nov-04 12:00:00, , ,274.4776070,  4.6256218,
 2016-Nov-04 13:00:00, , ,274.9810647,  4.6073604,
 2016-Nov-04 14:00:00, , ,275.4847709,  4.5887303,
 2016-Nov-04 15:00:00, , ,275.9887297,  4.5697322,
 2016-Nov-04 16:00:00, , ,276.4929451,  4.5503669,
 2016-Nov-04 17:00:00, , ,276.9974212,  4.5306352,
 2016-Nov-04 18:00:00, , ,277.5021623,  4.5105378,
 2016-Nov-04 19:00:00, , ,278.0071726,  4.4900756,
 2016-Nov-04 20:00:00, , ,278.5124563,  4.4692494,
 2016-Nov-04 21:00:00, , ,279.0180176,  4.4480601,
 2016-Nov-04 22:00:00, , ,279.5238610,  4.4265087,
 2016-Nov-04 23:00:00, , ,280.0299906,  4.4045958,
 2016-Nov-05 00:00:00, , ,280.5364109,  4.3823226,
 2016-Nov-05 01:00:00, , ,281.0431262,  4.3596900,
 2016-Nov-05 02:00:00, , ,281.5501411,  4.3366988,
 2016-Nov-05 03:00:00, , ,282.0574599,  4.3133502,
 2016-Nov-05 04:00:00, , ,282.5650871,  4.2896450,
 2016-Nov-05 05:00:00, , ,283.0730273,  4.2655843,
 2016-Nov-05 06:00:00, , ,283.5812850,  4.2411691,
 2016-Nov-05 07:00:00, , ,284.0898647,  4.2164006,
 2016-Nov-05 08:00:00, , ,284.5987711,  4.1912798,
 2016-Nov-05 09:00:00, , ,285.1080088,  4.1658077,
 2016-Nov-05 10:00:00, , ,285.6175825,  4.1399855,
 2016-Nov-05 11:00:00, , ,286.1274969,  4.1138144,
 2016-Nov-05 12:00:00, , ,286.6377566,  4.0872955,
 2016-Nov-05 13:00:00, , ,287.1483664,  4.0604300,
 2016-Nov-05 14:00:00, , ,287.6593311,  4.0332192,
 2016-Nov-05 15:00:00, , ,288.1706555,  4.0056641,
 2016-Nov-05 16:00:00, , ,288.6823444,  3.9777661,
 2016-Nov-05 17:00:00, , ,289.1944026,  3.9495265,
 2016-Nov-05 18:00:00, , ,289.7068350,  3.9209466,
 2016-Nov-05 19:00:00, , ,290.2196466,  3.8920276,
 2016-Nov-05 20:00:00, , ,290.7328421,  3.8627709,
 2016-Nov-05 21:00:00, , ,291.2464267,  3.8331779,
 2016-Nov-05 22:00:00, , ,291.7604051,  3.8032499,
 2016-Nov-05 23:00:00, , ,292.2747825,  3.7729884,
 2016-Nov-06 00:00:00, , ,292.7895639,  3.7423947,
 2016-Nov-06 01:00:00, , ,293.3047541,  3.7114704,
 2016-Nov-06 02:00:00, , ,293.8203584,  3.6802170,
 2016-Nov-06 03:00:00, , ,294.3363818,  3.6486358,
 2016-Nov-06 04:00:00, , ,294.8528294,  3.6167285,
 2016-Nov-06 05:00:00, , ,295.3697062,  3.5844966,
